{
  "norad_id": 56397,
  "name": "STARLINK-6271",
  "history": [
    {
      "epoch": "2026-03-28T20:00:01.999872Z",
      "apogee_km": 486.6813990474602,
      "perigee_km": 484.54402738676345,
      "latitude_deg": -11.615383263919252,
      "longitude_deg": -60.05958158534325,
      "height_km": 487.48455718717145,
      "semi_major_axis_km": 6863.749713217111,
      "eccentricity": 0.0001557,
      "inclination_deg": 43.0014,
      "raan_deg": 78.8588,
      "arg_perigee_deg": 260.1238,
      "mean_anomaly_deg": 82.8703,
      "mean_motion_rev_day": 15.26724251
    },
    {
      "epoch": "2026-03-29T00:47:07.586016Z",
      "apogee_km": 486.3816864026403,
      "perigee_km": 484.74538019550164,
      "latitude_deg": -1.4208817173140946e-05,
      "longitude_deg": -120.49086137438476,
      "height_km": 485.21948258903114,
      "semi_major_axis_km": 6863.70053329907,
      "eccentricity": 0.0001192,
      "inclination_deg": 43.0025,
      "raan_deg": 77.7354,
      "arg_perigee_deg": 278.5011,
      "mean_anomaly_deg": 81.5705,
      "mean_motion_rev_day": 15.2674066
    },
    {
      "epoch": "2026-03-30T00:20:14.483328Z",
      "apogee_km": 486.3667198826888,
      "perigee_km": 484.74112332481764,
      "latitude_deg": 2.4688914097972095e-05,
      "longitude_deg": -120.27290100599542,
      "height_km": 485.33605373103853,
      "semi_major_axis_km": 6863.690921603753,
      "eccentricity": 0.00011842,
      "inclination_deg": 43.0032,
      "raan_deg": 72.1993,
      "arg_perigee_deg": 269.6351,
      "mean_anomaly_deg": 90.4365,
      "mean_motion_rev_day": 15.26743867
    },
    {
      "epoch": "2026-03-31T06:10:11.073504Z",
      "apogee_km": 486.4326708710996,
      "perigee_km": 484.6494873061529,
      "latitude_deg": -3.89140245877062e-05,
      "longitude_deg": 144.00536770824957,
      "height_km": 485.28767765765133,
      "semi_major_axis_km": 6863.678079088626,
      "eccentricity": 0.0001299,
      "inclination_deg": 43.0034,
      "raan_deg": 65.1886,
      "arg_perigee_deg": 271.9596,
      "mean_anomaly_deg": 88.1106,
      "mean_motion_rev_day": 15.26748152
    },
    {
      "epoch": "2026-04-01T07:17:31.534944Z",
      "apogee_km": 486.46594805431323,
      "perigee_km": 484.66079485662067,
      "latitude_deg": 1.307403657130741e-05,
      "longitude_deg": 120.2341302916868,
      "height_km": 485.3797465281697,
      "semi_major_axis_km": 6863.700371455467,
      "eccentricity": 0.0001315,
      "inclination_deg": 43.004,
      "raan_deg": 59.2843,
      "arg_perigee_deg": 267.5093,
      "mean_anomaly_deg": 92.5608,
      "mean_motion_rev_day": 15.26740714
    }
  ]
}